[
    {
        "Altitude(m)": 607911.0143488992,
        "Argument of Periapsis(deg)": 0.0,
        "Eccentricity": 0.0,
        "Inclination(deg)": 60.0,
        "Latitude(deg)": -14.292974172520976,
        "Longitude(deg)": -16.557323324704793,
        "Mean Anomaly(deg)": -163.6364,
        "RAAN(deg)": 255.0,
        "Satellite Name": "Test1 1134",
        "Satellite Number": 1134,
        "Semi-Major Axis(m)": 6980739.136638005,
        "Time(s)": 0
    },
    {
        "Altitude(m)": 608060.2480167615,
        "Argument of Periapsis(deg)": 0.00010418945913296404,
        "Eccentricity": 0.0,
        "Inclination(deg)": 60.0,
        "Latitude(deg)": -14.826634989301157,
        "Longitude(deg)": -16.26871270770897,
        "Mean Anomaly(deg)": -163.01629385453816,
        "RAAN(deg)": 254.99957995086027,
        "Satellite Name": "Test1 1134",
        "Satellite Number": 1134,
        "Semi-Major Axis(m)": 6980739.136638005,
        "Time(s)": 10
    }
]